start=new Date('2023-01-27T00:00:00.000Z').valueOf();
sats=[{"NORAD_CAT_ID":"53153","LAUNCH_DATE":"2022-07-17","SITE":"AFETR","CENTER_NAME":"EARTH","MEAN_MOTION_DDOT":"0.0000000000000","OBJECT_ID":"2022-083X","EPOCH":"2023-01-26T12:39:47.854944","ELEMENT_SET_NO":"999","PERIOD":"95.438","ARG_OF_PERICENTER":"79.4667","MEAN_ANOMALY":"280.6449","FILE":"3761951","INCLINATION":"53.2164","ECCENTRICITY":"0.00011020","TLE_LINE2":"2 53153  53.2164 233.5242 0001102  79.4667 280.6449 15.08840324 29531","REF_FRAME":"TEME","EPHEMERIS_TYPE":"0","GP_ID":"223758550","RCS_SIZE":"LARGE","MEAN_ELEMENT_THEORY":"SGP4","MEAN_MOTION_DOT":"0.00000616","APOAPSIS":"540.507","TLE_LINE1":"1 53153U 22083X   23026.52763721  .00000616  00000-0  56792-4 0  9994","TIME_SYSTEM":"UTC","RA_OF_ASC_NODE":"233.5242","DECAY_DATE":null,"PERIAPSIS":"538.982","BSTAR":"0.00005679200000","CLASSIFICATION_TYPE":"U","COUNTRY_CODE":"US","OBJECT_NAME":"STARLINK-4098","OBJECT_TYPE":"PAYLOAD","MEAN_MOTION":"15.08840324","REV_AT_EPOCH":"2953","SEMIMAJOR_AXIS":"6917.879"},{"OBJECT_NAME":"STARLINK-4077","OBJECT_TYPE":"PAYLOAD","CLASSIFICATION_TYPE":"U","COUNTRY_CODE":"US","REV_AT_EPOCH":"2953","SEMIMAJOR_AXIS":"6917.890","MEAN_MOTION":"15.08837013","MEAN_ELEMENT_THEORY":"SGP4","MEAN_MOTION_DOT":"0.00000766","EPHEMERIS_TYPE":"0","RCS_SIZE":"LARGE","GP_ID":"223758573","RA_OF_ASC_NODE":"233.4952","DECAY_DATE":null,"PERIAPSIS":"538.942","BSTAR":"0.00006621400000","APOAPSIS":"540.567","TLE_LINE1":"1 53154U 22083Y   23026.53499955  .00000766  00000-0  66214-4 0  9997","TIME_SYSTEM":"UTC","ELEMENT_SET_NO":"999","FILE":"3761951","INCLINATION":"53.2164","REF_FRAME":"TEME","TLE_LINE2":"2 53154  53.2164 233.4952 0001175  83.8262 276.2864 15.08837013 29532","ECCENTRICITY":"0.00011750","PERIOD":"95.438","ARG_OF_PERICENTER":"83.8262","MEAN_ANOMALY":"276.2864","NORAD_CAT_ID":"53154","LAUNCH_DATE":"2022-07-17","CENTER_NAME":"EARTH","OBJECT_ID":"2022-083Y","MEAN_MOTION_DDOT":"0.0000000000000","EPOCH":"2023-01-26T12:50:23.961120","SITE":"AFETR"},{"ELEMENT_SET_NO":"999","PERIOD":"95.437","ARG_OF_PERICENTER":"80.9426","MEAN_ANOMALY":"279.1714","INCLINATION":"53.2170","FILE":"3762173","TLE_LINE2":"2 53155  53.2170 232.0733 0001303  80.9426 279.1714 15.08845300 30216","ECCENTRICITY":"0.00013030","REF_FRAME":"TEME","NORAD_CAT_ID":"53155","LAUNCH_DATE":"2022-07-17","SITE":"AFETR","CENTER_NAME":"EARTH","MEAN_MOTION_DDOT":"0.0000000000000","OBJECT_ID":"2022-083Z","EPOCH":"2023-01-26T20:26:07.370880","CLASSIFICATION_TYPE":"U","COUNTRY_CODE":"US","OBJECT_NAME":"STARLINK-4088","OBJECT_TYPE":"PAYLOAD","MEAN_MOTION":"15.08845300","REV_AT_EPOCH":"3021","SEMIMAJOR_AXIS":"6917.864","EPHEMERIS_TYPE":"0","RCS_SIZE":"LARGE","GP_ID":"223765687","MEAN_ELEMENT_THEORY":"SGP4","MEAN_MOTION_DOT":"0.00000990","APOAPSIS":"540.631","TLE_LINE1":"1 53155U 22083Z   23026.85147420  .00000990  00000-0  80265-4 0  9991","TIME_SYSTEM":"UTC","RA_OF_ASC_NODE":"232.0733","DECAY_DATE":null,"PERIAPSIS":"538.828","BSTAR":"0.00008026500000"},{"TLE_LINE1":"1 53156U 22083AA  23026.85243176  .00001419  00000-0  10721-3 0  9993","TIME_SYSTEM":"UTC","APOAPSIS":"540.503","BSTAR":"0.00010721000000","PERIAPSIS":"538.955","DECAY_DATE":null,"RA_OF_ASC_NODE":"232.0687","GP_ID":"223765328","RCS_SIZE":"LARGE","EPHEMERIS_TYPE":"0","MEAN_MOTION_DOT":"0.00001419","MEAN_ELEMENT_THEORY":"SGP4","MEAN_MOTION":"15.08845237","SEMIMAJOR_AXIS":"6917.864","REV_AT_EPOCH":"3021","COUNTRY_CODE":"US","CLASSIFICATION_TYPE":"U","OBJECT_TYPE":"PAYLOAD","OBJECT_NAME":"STARLINK-4087","SITE":"AFETR","EPOCH":"2023-01-26T20:27:30.104064","CENTER_NAME":"EARTH","OBJECT_ID":"2022-083AA","MEAN_MOTION_DDOT":"0.0000000000000","LAUNCH_DATE":"2022-07-17","NORAD_CAT_ID":"53156","MEAN_ANOMALY":"280.7719","PERIOD":"95.437","ARG_OF_PERICENTER":"79.3399","REF_FRAME":"TEME","TLE_LINE2":"2 53156  53.2158 232.0687 0001119  79.3399 280.7719 15.08845237 30219","ECCENTRICITY":"0.00011190","INCLINATION":"53.2158","FILE":"3762173","ELEMENT_SET_NO":"999"},{"ELEMENT_SET_NO":"999","PERIOD":"95.437","ARG_OF_PERICENTER":"80.0661","MEAN_ANOMALY":"280.0455","INCLINATION":"53.2156","FILE":"3761951","REF_FRAME":"TEME","TLE_LINE2":"2 53157  53.2156 235.9743 0001099  80.0661 280.0455 15.08846850 29457","ECCENTRICITY":"0.00010990","NORAD_CAT_ID":"53157","LAUNCH_DATE":"2022-07-17","SITE":"AFETR","OBJECT_ID":"2022-083AB","MEAN_MOTION_DDOT":"0.0000000000000","CENTER_NAME":"EARTH","EPOCH":"2023-01-25T23:35:30.640128","COUNTRY_CODE":"US","CLASSIFICATION_TYPE":"U","OBJECT_NAME":"STARLINK-4093","OBJECT_TYPE":"PAYLOAD","MEAN_MOTION":"15.08846850","REV_AT_EPOCH":"2945","SEMIMAJOR_AXIS":"6917.859","EPHEMERIS_TYPE":"0","RCS_SIZE":"LARGE","GP_ID":"223759051","MEAN_ELEMENT_THEORY":"SGP4","MEAN_MOTION_DOT":"0.00001815","APOAPSIS":"540.485","TIME_SYSTEM":"UTC","TLE_LINE1":"1 53157U 22083AB  23025.98299352  .00001815  00000-0  13204-3 0  9993","PERIAPSIS":"538.964","DECAY_DATE":null,"RA_OF_ASC_NODE":"235.9743","BSTAR":"0.00013204000000"},{"COUNTRY_CODE":"US","CLASSIFICATION_TYPE":"U","OBJECT_TYPE":"PAYLOAD","OBJECT_NAME":"STARLINK-4054","MEAN_MOTION":"15.08839610","SEMIMAJOR_AXIS":"6917.882","REV_AT_EPOCH":"2953","RCS_SIZE":"LARGE","GP_ID":"223759074","EPHEMERIS_TYPE":"0","MEAN_MOTION_DOT":"0.00000332","MEAN_ELEMENT_THEORY":"SGP4","TLE_LINE1":"1 53158U 22083AC  23026.52395682  .00000332  00000-0  38943-4 0  9999","TIME_SYSTEM":"UTC","APOAPSIS":"540.418","BSTAR":"0.00003894300000","DECAY_DATE":null,"RA_OF_ASC_NODE":"233.5414","PERIAPSIS":"539.075","ELEMENT_SET_NO":"999","MEAN_ANOMALY":"270.3526","PERIOD":"95.438","ARG_OF_PERICENTER":"89.7577","TLE_LINE2":"2 53158  53.2163 233.5414 0000971  89.7577 270.3526 15.08839610 29531","ECCENTRICITY":"0.00009710","REF_FRAME":"TEME","FILE":"3761951","INCLINATION":"53.2163","LAUNCH_DATE":"2022-07-17","NORAD_CAT_ID":"53158","SITE":"AFETR","EPOCH":"2023-01-26T12:34:29.869248","CENTER_NAME":"EARTH","MEAN_MOTION_DDOT":"0.0000000000000","OBJECT_ID":"2022-083AC"},{"NORAD_CAT_ID":"53159","LAUNCH_DATE":"2022-07-17","SITE":"AFETR","CENTER_NAME":"EARTH","MEAN_MOTION_DDOT":"0.0000000000000","OBJECT_ID":"2022-083AD","EPOCH":"2023-01-26T13:43:23.324736","ELEMENT_SET_NO":"999","PERIOD":"95.437","ARG_OF_PERICENTER":"81.5299","MEAN_ANOMALY":"278.5855","INCLINATION":"53.2158","FILE":"3761951","TLE_LINE2":"2 53159  53.2158 233.3241 0001428  81.5299 278.5855 15.08844103 29540","ECCENTRICITY":"0.00014280","REF_FRAME":"TEME","EPHEMERIS_TYPE":"0","RCS_SIZE":"LARGE","GP_ID":"223759324","MEAN_ELEMENT_THEORY":"SGP4","MEAN_MOTION_DOT":"0.00005873","APOAPSIS":"540.721","TLE_LINE1":"1 53159U 22083AD  23026.57179774  .00005873  00000-0  38674-3 0  9992","TIME_SYSTEM":"UTC","PERIAPSIS":"538.745","DECAY_DATE":null,"RA_OF_ASC_NODE":"233.3241","BSTAR":"0.00038674000000","CLASSIFICATION_TYPE":"U","COUNTRY_CODE":"US","OBJECT_NAME":"STARLINK-4111","OBJECT_TYPE":"PAYLOAD","MEAN_MOTION":"15.08844103","REV_AT_EPOCH":"2954","SEMIMAJOR_AXIS":"6917.868"},{"ELEMENT_SET_NO":"999","TLE_LINE2":"2 53160  53.2174 232.0862 0001040  90.7861 269.3250 15.08840628 30213","REF_FRAME":"TEME","ECCENTRICITY":"0.00010400","INCLINATION":"53.2174","FILE":"3762177","MEAN_ANOMALY":"269.3250","PERIOD":"95.438","ARG_OF_PERICENTER":"90.7861","LAUNCH_DATE":"2022-07-17","NORAD_CAT_ID":"53160","EPOCH":"2023-01-26T20:20:49.653024","CENTER_NAME":"EARTH","OBJECT_ID":"2022-083AE","MEAN_MOTION_DDOT":"0.0000000000000","SITE":"AFETR","OBJECT_TYPE":"PAYLOAD","OBJECT_NAME":"STARLINK-4096","CLASSIFICATION_TYPE":"U","COUNTRY_CODE":"US","SEMIMAJOR_AXIS":"6917.878","REV_AT_EPOCH":"3021","MEAN_MOTION":"15.08840628","MEAN_MOTION_DOT":"0.00000554","MEAN_ELEMENT_THEORY":"SGP4","GP_ID":"223765369","RCS_SIZE":"LARGE","EPHEMERIS_TYPE":"0","BSTAR":"0.00005287000000","DECAY_DATE":null,"RA_OF_ASC_NODE":"232.0862","PERIAPSIS":"539.024","TLE_LINE1":"1 53160U 22083AE  23026.84779691  .00000554  00000-0  52870-4 0  9994","TIME_SYSTEM":"UTC","APOAPSIS":"540.463"},{"SITE":"AFETR","EPOCH":"2023-01-26T19:49:02.499168","OBJECT_ID":"2022-083AF","MEAN_MOTION_DDOT":"0.0000000000000","CENTER_NAME":"EARTH","LAUNCH_DATE":"2022-07-17","NORAD_CAT_ID":"53161","MEAN_ANOMALY":"268.9527","PERIOD":"95.438","ARG_OF_PERICENTER":"91.1595","TLE_LINE2":"2 53161  53.2145 232.1976 0001127  91.1595 268.9527 15.08829567 30215","REF_FRAME":"TEME","ECCENTRICITY":"0.00011270","INCLINATION":"53.2145","FILE":"3762178","ELEMENT_SET_NO":"999","TIME_SYSTEM":"UTC","TLE_LINE1":"1 53161U 22083AF  23026.82572337  .00003814  00000-0  25764-3 0  9994","APOAPSIS":"540.557","BSTAR":"0.00025764000000","RA_OF_ASC_NODE":"232.1976","DECAY_DATE":null,"PERIAPSIS":"538.998","GP_ID":"223765378","RCS_SIZE":"LARGE","EPHEMERIS_TYPE":"0","MEAN_MOTION_DOT":"0.00003814","MEAN_ELEMENT_THEORY":"SGP4","MEAN_MOTION":"15.08829567","SEMIMAJOR_AXIS":"6917.912","REV_AT_EPOCH":"3021","CLASSIFICATION_TYPE":"U","COUNTRY_CODE":"US","OBJECT_TYPE":"PAYLOAD","OBJECT_NAME":"STARLINK-4055"},{"MEAN_MOTION":"15.08848500","SEMIMAJOR_AXIS":"6917.854","REV_AT_EPOCH":"3021","CLASSIFICATION_TYPE":"U","COUNTRY_CODE":"US","OBJECT_TYPE":"PAYLOAD","OBJECT_NAME":"STARLINK-4114","TIME_SYSTEM":"UTC","TLE_LINE1":"1 53162U 22083AG  23026.84043179  .00000823  00000-0  69767-4 0  9993","APOAPSIS":"540.560","BSTAR":"0.00006976700000","DECAY_DATE":null,"PERIAPSIS":"538.879","RA_OF_ASC_NODE":"232.1239","GP_ID":"223765386","RCS_SIZE":"LARGE","EPHEMERIS_TYPE":"0","MEAN_MOTION_DOT":"0.00000823","MEAN_ELEMENT_THEORY":"SGP4","MEAN_ANOMALY":"273.0033","PERIOD":"95.437","ARG_OF_PERICENTER":"87.1099","TLE_LINE2":"2 53162  53.2179 232.1239 0001215  87.1099 273.0033 15.08848500 30214","ECCENTRICITY":"0.00012150","REF_FRAME":"TEME","FILE":"3762178","INCLINATION":"53.2179","ELEMENT_SET_NO":"999","SITE":"AFETR","EPOCH":"2023-01-26T20:10:13.306656","MEAN_MOTION_DDOT":"0.0000000000000","OBJECT_ID":"2022-083AG","CENTER_NAME":"EARTH","LAUNCH_DATE":"2022-07-17","NORAD_CAT_ID":"53162"}];
